H1 CPF  1  DGF 2022 06 21 08  6721 larets     NONE      
H2   304206 5557    27944 2022 06 16 00 00 00 2022 06 23 00 00 00    30 1 1  0 0 0
H5  0.0650
H9
10 0 59748  14400.000000  0      -3910579.992       2938947.740      -5094837.528
10 0 59748  14430.000000  0      -3747206.239       2887243.330      -5244786.260
10 0 59748  14460.000000  0      -3580278.607       2831897.569      -5389393.697
10 0 59748  14490.000000  0      -3409982.213       2772951.692      -5528513.382
10 0 59748  14520.000000  0      -3236505.337       2710451.363      -5662004.471
10 0 59748  14550.000000  0      -3060039.202       2644446.648      -5789731.877
10 0 59748  14580.000000  0      -2880777.765       2574991.968      -5911566.397
10 0 59748  14610.000000  0      -2698917.497       2502146.056      -6027384.839
10 0 59748  14640.000000  0      -2514657.161       2425971.904      -6137070.139
10 0 59748  14670.000000  0      -2328197.596       2346536.705      -6240511.471
10 0 59748  14700.000000  0      -2139741.493       2263911.795      -6337604.349
10 0 59748  14730.000000  0      -1949493.172       2178172.579      -6428250.727
10 0 59748  14760.000000  0      -1757658.370       2089398.472      -6512359.082
10 0 59748  14790.000000  0      -1564444.014       1997672.819      -6589844.508
10 0 59748  14820.000000  0      -1370058.004       1903082.819      -6660628.793
10 0 59748  14850.000000  0      -1174708.985       1805719.440      -6724640.496
10 0 59748  14880.000000  0       -978606.127       1705677.331      -6781815.016
10 0 59748  14910.000000  0       -781958.899       1603054.726      -6832094.644
10 0 59748  14940.000000  0       -584976.850       1497953.349      -6875428.618
10 0 59748  14970.000000  0       -387869.390       1390478.315      -6911773.163
10 0 59748  15000.000000  0       -190845.577       1280738.029      -6941091.540
10 0 59748  15030.000000  0          5886.103       1168844.074      -6963354.084
10 0 59748  15060.000000  0        202117.957       1054911.103      -6978538.233
10 0 59748  15090.000000  0        397643.302        939056.721      -6986628.553
10 0 59748  15120.000000  0        592256.685        821401.366      -6987616.757
10 0 59748  15150.000000  0        785754.100        702068.180      -6981501.705
10 0 59748  15180.000000  0        977933.195        581182.884      -6968289.409
10 0 59748  15210.000000  0       1168593.488        458873.648      -6947993.023
10 0 59748  15240.000000  0       1357536.566        335270.952      -6920632.832
10 0 59748  15270.000000  0       1544566.293        210507.454      -6886236.230
10 0 59748  15300.000000  0       1729489.012         84717.847      -6844837.700
10 0 59748  15330.000000  0       1912113.736        -41961.283      -6796478.780
10 0 59748  15360.000000  0       2092252.350       -169391.598      -6741208.030
10 0 59748  15390.000000  0       2269719.807       -297433.165      -6679080.991
10 0 59748  15420.000000  0       2444334.320       -425944.601      -6610160.131
10 0 59748  15450.000000  0       2615917.548       -554783.232      -6534514.786
10 0 59748  15480.000000  0       2784294.779       -683805.249      -6452221.090
10 0 59748  15510.000000  0       2949295.105       -812865.864      -6363361.909
10 0 59748  15540.000000  0       3110751.596       -941819.465      -6268026.758
10 0 59748  15570.000000  0       3268501.470      -1070519.785      -6166311.727
10 0 59748  15600.000000  0       3422386.260      -1198820.057      -6058319.390
10 0 59748  15630.000000  0       3572251.982      -1326573.185      -5944158.715
10 0 59748  15660.000000  0       3717949.290      -1453631.916      -5823944.961
10 0 59748  15690.000000  0       3859333.638      -1579849.004      -5697799.565
10 0 59748  15720.000000  0       3996265.420      -1705077.387      -5565850.025
10 0 59748  15750.000000  0       4128610.120      -1829170.355      -5428229.781
10 0 59748  15780.000000  0       4256238.444      -1951981.720      -5285078.084
10 0 59748  15810.000000  0       4379026.456      -2073365.993      -5136539.861
10 0 59748  15840.000000  0       4496855.703      -2193178.550      -4982765.575
10 0 59748  15870.000000  0       4609613.333      -2311275.814      -4823911.078
10 0 59748  15900.000000  0       4717192.213      -2427515.416      -4660137.458
10 0 59748  15930.000000  0       4819491.035      -2541756.378      -4491610.884
10 0 59748  15960.000000  0       4916414.419      -2653859.274      -4318502.437
10 0 59748  15990.000000  0       5007873.009      -2763686.410      -4140987.945
10 0 59748  16020.000000  0       5093783.566      -2871101.985      -3959247.807
10 0 59748  16050.000000  0       5174069.045      -2975972.269      -3773466.811
10 0 59748  16080.000000  0       5248658.676      -3078165.762      -3583833.947
10 0 59748  16110.000000  0       5317488.034      -3177553.364      -3390542.219
10 0 59748  16140.000000  0       5380499.099      -3274008.534      -3193788.448
10 0 59748  16170.000000  0       5437640.310      -3367407.460      -2993773.066
10 0 59748  16200.000000  0       5488866.613      -3457629.207      -2790699.914
10 0 59748  16230.000000  0       5534139.498      -3544555.881      -2584776.029
10 0 59748  16260.000000  0       5573427.028      -3628072.773      -2376211.436
10 0 59748  16290.000000  0       5606703.868      -3708068.517      -2165218.932
10 0 59748  16320.000000  0       5633951.298      -3784435.232      -1952013.863
10 0 59748  16350.000000  0       5655157.228      -3857068.673      -1736813.903
10 0 59748  16380.000000  0       5670316.195      -3925868.361      -1519838.822
10 0 59748  16410.000000  0       5679429.356      -3990737.729      -1301310.256
10 0 59748  16440.000000  0       5682504.471      -4051584.241      -1081451.478
10 0 59748  16470.000000  0       5679555.882      -4108319.528       -860487.164
10 0 59748  16500.000000  0       5670604.485      -4160859.503       -638643.157
10 0 59748  16530.000000  0       5655677.692      -4209124.484       -416146.231
10 0 59748  16560.000000  0       5634809.388      -4253039.310       -193223.849
10 0 59748  16590.000000  0       5608039.872      -4292533.440         29896.082
10 0 59748  16620.000000  0       5575415.795      -4327541.061        252985.447
10 0 59748  16650.000000  0       5536990.089      -4358001.180        475816.164
10 0 59748  16680.000000  0       5492821.895      -4383857.718        698160.423
10 0 59748  16710.000000  0       5442976.477      -4405059.592        919790.934
10 0 59748  16740.000000  0       5387525.128      -4421560.795       1140481.159
10 0 59748  16770.000000  0       5326545.076      -4433320.468       1360005.561
10 0 59748  16800.000000  0       5260119.374      -4440302.959       1578139.830
10 0 59748  16830.000000  0       5188336.792      -4442477.888       1794661.130
10 0 59748  16860.000000  0       5111291.696      -4439820.199       2009348.320
10 0 59748  16890.000000  0       5029083.925      -4432310.202       2221982.194
10 0 59748  16920.000000  0       4941818.660      -4419933.619       2432345.703
10 0 59748  16950.000000  0       4849606.290      -4402681.617       2640224.183
10 0 59748  16980.000000  0       4752562.267      -4380550.834       2845405.580
10 0 59748  17010.000000  0       4650806.964      -4353543.399       3047680.664
10 0 59748  17040.000000  0       4544465.520      -4321666.951       3246843.251
10 0 59748  17070.000000  0       4433667.684      -4284934.647       3442690.412
10 0 59748  17100.000000  0       4318547.654      -4243365.160       3635022.684
10 0 59748  17130.000000  0       4199243.905      -4196982.683       3823644.271
10 0 59748  17160.000000  0       4075899.024      -4145816.909       4008363.252
10 0 59748  17190.000000  0       3948659.526      -4089903.018       4188991.766
10 0 59748  17220.000000  0       3817675.679      -4029281.647       4365346.211
10 0 59748  17250.000000  0       3683101.323      -3963998.863       4537247.421
10 0 59748  17280.000000  0       3545093.679      -3894106.117       4704520.847
10 0 59748  17310.000000  0       3403813.165      -3819660.209       4866996.729
10 0 59748  17340.000000  0       3259423.210      -3740723.235       5024510.262
10 0 59748  17370.000000  0       3112090.059      -3657362.536       5176901.762
10 0 59748  17400.000000  0       2961982.578      -3569650.632       5324016.825
10 0 59748  17430.000000  0       2809272.058      -3477665.162       5465706.480
10 0 59748  17460.000000  0       2654132.011      -3381488.800       5601827.334
10 0 59748  17490.000000  0       2496737.975      -3281209.182       5732241.707
10 0 59748  17520.000000  0       2337267.307      -3176918.821       5856817.767
10 0 59748  17550.000000  0       2175898.983      -3068715.014       5975429.655
10 0 59748  17580.000000  0       2012813.396      -2956699.753       6087957.600
10 0 59748  17610.000000  0       1848192.151      -2840979.622       6194288.038
10 0 59748  17640.000000  0       1682217.868      -2721665.692       6294313.714
10 0 59748  17670.000000  0       1515073.974      -2598873.415       6387933.787
10 0 59748  17700.000000  0       1346944.501      -2472722.507       6475053.927
10 0 59748  17730.000000  0       1178013.884      -2343336.831       6555586.397
10 0 59748  17760.000000  0       1008466.756      -2210844.267       6629450.138
10 0 59748  17790.000000  0        838487.750      -2075376.593       6696570.841
10 0 59748  17820.000000  0        668261.297      -1937069.346       6756881.014
10 0 59748  17850.000000  0        497971.434      -1796061.689       6810320.044
10 0 59748  17880.000000  0        327801.603      -1652496.274       6856834.259
10 0 59748  17910.000000  0        157934.456      -1506519.089       6896376.972
10 0 59748  17940.000000  0        -11448.340      -1358279.312       6928908.524
10 0 59748  17970.000000  0       -180166.292      -1207929.158       6954396.317
99
